{
  "type": "FeatureCollection",
  "features": [
    {
      "type": "Feature",
      "geometry": {
        "type": "Point",
        "coordinates": [
          -1.5412777777777777,
          51.72836111111111
        ]
      },
      "properties": {
        "STW": "Bampton",
        "Catchment": "Windrush",
        "Lat": "51\u00b043'42.1\"N ",
        "Lon": "1\u00b032'28.6\"W",
        "Upgrade_type": null,
        "Original_date": 2025,
        "Revised_date": 2028.0,
        "Original Allocation": "AMP8",
        "Revised Allocation": "AMP8",
        "Delay_length": 3.0,
        "Status": "Delay",
        "Notes": "Major increase in treatment capacity from 23 to 36 L/s",
        "Public_exp": "More sewage treated during heavy rainfall to reduce spills",
        "Spill Hours 2024-2025": 926.0,
        "Spill Events 2024-2025": 82,
        "Storm overflow reduction plan?": 2030.0
      }
    },
    {
      "type": "Feature",
      "geometry": {
        "type": "Point",
        "coordinates": [
          -1.7353055555555557,
          51.87844444444445
        ]
      },
      "properties": {
        "STW": "Bourton on the Water",
        "Catchment": "Windrush",
        "Lat": "51\u00b052'42.4\"N ",
        "Lon": "1\u00b044'07.1\"W",
        "Upgrade_type": null,
        "Original_date": 2024,
        "Revised_date": 2027.0,
        "Original Allocation": "PR19",
        "Revised Allocation": null,
        "Delay_length": 3.0,
        "Status": "Delay",
        "Notes": "Increasing flows from circa 96l/s to 143l/s and network sealing works and 0.4 mg/l Phosphorus permit",
        "Public_exp": "More sewage fully treated instead of discharged during storms",
        "Spill Hours 2024-2025": 3374.5,
        "Spill Events 2024-2025": 202,
        "Storm overflow reduction plan?": 2045.0
      }
    },
    {
      "type": "Feature",
      "geometry": {
        "type": "Point",
        "coordinates": [
          -1.3491944444444444,
          51.79002777777777
        ]
      },
      "properties": {
        "STW": "Cassington",
        "Catchment": "Windrush",
        "Lat": "51\u00b047'24.1\"N ",
        "Lon": "1\u00b020'57.1\"W",
        "Upgrade_type": null,
        "Original_date": 2025,
        "Revised_date": 2029.0,
        "Original Allocation": "AMP8",
        "Revised Allocation": "AMP8",
        "Delay_length": 4.0,
        "Status": "Significant Delay",
        "Notes": "The upgrade will improve its ability to treat the volumes of incoming sewage, reducing the need for untreated discharges in wet weather",
        "Public_exp": null,
        "Spill Hours 2024-2025": 0.0,
        "Spill Events 2024-2025": 0,
        "Storm overflow reduction plan?": null
      }
    },
    {
      "type": "Feature",
      "geometry": {
        "type": "Point",
        "coordinates": [
          -1.6360833333333333,
          51.80986111111111
        ]
      },
      "properties": {
        "STW": "Burford ",
        "Catchment": "Windrush",
        "Lat": "51\u00b048'35.5\"N ",
        "Lon": "1\u00b038'09.9\"W",
        "Upgrade_type": null,
        "Original_date": 2021,
        "Revised_date": 2026.0,
        "Original Allocation": "AMP7",
        "Revised Allocation": "AMP8",
        "Delay_length": 5.0,
        "Status": null,
        "Notes": "Upgrade EDM systems",
        "Public_exp": null,
        "Spill Hours 2024-2025": 0.0,
        "Spill Events 2024-2025": 0,
        "Storm overflow reduction plan?": 2045.0
      }
    },
    {
      "type": "Feature",
      "geometry": {
        "type": "Point",
        "coordinates": [
          -1.5956944444444445,
          51.74197222222222
        ]
      },
      "properties": {
        "STW": "Carterton",
        "Catchment": "Windrush",
        "Lat": "51\u00b044'31.1\"N ",
        "Lon": "1\u00b035'44.5\"W",
        "Upgrade_type": null,
        "Original_date": 2025,
        "Revised_date": 2028.0,
        "Original Allocation": "PR19",
        "Revised Allocation": null,
        "Delay_length": 3.0,
        "Status": "Delay",
        "Notes": "Upgrade will improve its ability to treat the volumes of incoming sewage, reducing the need for untreated discharges in wet weather",
        "Public_exp": "Improve its ability to treat the volumes of incoming sewage, reducing the need for untreated discharges in wet weather",
        "Spill Hours 2024-2025": 403.75,
        "Spill Events 2024-2025": 25,
        "Storm overflow reduction plan?": 2045.0
      }
    },
    {
      "type": "Feature",
      "geometry": {
        "type": "Point",
        "coordinates": [
          -1.5838888888888891,
          51.71652777777778
        ]
      },
      "properties": {
        "STW": "Clanfield",
        "Catchment": "Windrush",
        "Lat": "51\u00b042'59.5\"N ",
        "Lon": "1\u00b035'02.0\"W",
        "Upgrade_type": null,
        "Original_date": 2025,
        "Revised_date": null,
        "Original Allocation": "AMP7",
        "Revised Allocation": "AMP8",
        "Delay_length": 5.0,
        "Status": "Significant Delay",
        "Notes": "An upgrade is planned for Clanfield STW. This will improve its ability to treat the volumes of incoming sewage, reducing the need for untreated discharges in wet weather. TW are unable to advise on the timing of the work planned at this time.\u00a0",
        "Public_exp": null,
        "Spill Hours 2024-2025": 0.0,
        "Spill Events 2024-2025": 0,
        "Storm overflow reduction plan?": 2045.0
      }
    },
    {
      "type": "Feature",
      "geometry": {
        "type": "Point",
        "coordinates": [
          -1.5901944444444447,
          51.658944444444444
        ]
      },
      "properties": {
        "STW": "Faringdon",
        "Catchment": "Windrush",
        "Lat": "51\u00b039'32.2\"N ",
        "Lon": "1\u00b035'24.7\"W",
        "Upgrade_type": null,
        "Original_date": 2026,
        "Revised_date": 2026.0,
        "Original Allocation": "AMP8",
        "Revised Allocation": "AMP8",
        "Delay_length": 0.0,
        "Status": "Complete",
        "Notes": "Construction will be completed Sept 2026 and take over complete in November 2026; TW are currently on site and have done the majority of the works.\u00a0\u00a0",
        "Public_exp": null,
        "Spill Hours 2024-2025": 0.0,
        "Spill Events 2024-2025": 0,
        "Storm overflow reduction plan?": 2030.0
      }
    },
    {
      "type": "Feature",
      "geometry": {
        "type": "Point",
        "coordinates": [
          -1.6930277777777778,
          51.692722222222216
        ]
      },
      "properties": {
        "STW": "Lechlade",
        "Catchment": "Windrush",
        "Lat": "51\u00b041'33.8\"N ",
        "Lon": "1\u00b041'34.9\"W",
        "Upgrade_type": null,
        "Original_date": 2045,
        "Revised_date": 2045.0,
        "Original Allocation": null,
        "Revised Allocation": null,
        "Delay_length": 0.0,
        "Status": null,
        "Notes": null,
        "Public_exp": null,
        "Spill Hours 2024-2025": 0.0,
        "Spill Events 2024-2025": 0,
        "Storm overflow reduction plan?": 2045.0
      }
    },
    {
      "type": "Feature",
      "geometry": {
        "type": "Point",
        "coordinates": [
          -1.8368333333333335,
          51.828500000000005
        ]
      },
      "properties": {
        "STW": "Northleach",
        "Catchment": "Windrush",
        "Lat": "51\u00b049'42.6\"N ",
        "Lon": "1\u00b050'12.6\"W",
        "Upgrade_type": null,
        "Original_date": 2027,
        "Revised_date": null,
        "Original Allocation": "PR19",
        "Revised Allocation": null,
        "Delay_length": 5.0,
        "Status": "Significant Delay",
        "Notes": "This will improve its ability to treat the volumes of incoming sewage, reducing the need for untreated discharges in wet weather. This upgrade is planned for Northleach STW & will improve its ability to treat the volumes of incoming sewage, reducing the need for untreated discharges in wet weather. TW are not yet in a position to confirm the exact timing of this work.\u00a0",
        "Public_exp": null,
        "Spill Hours 2024-2025": 0.0,
        "Spill Events 2024-2025": 0,
        "Storm overflow reduction plan?": 2045.0
      }
    },
    {
      "type": "Feature",
      "geometry": {
        "type": "Point",
        "coordinates": [
          -1.43375,
          51.77580555555556
        ]
      },
      "properties": {
        "STW": "South Leigh",
        "Catchment": "Windrush",
        "Lat": "51\u00b046'32.9\"N ",
        "Lon": "1\u00b026'01.5\"W",
        "Upgrade_type": null,
        "Original_date": 2025,
        "Revised_date": 2026.0,
        "Original Allocation": null,
        "Revised Allocation": null,
        "Delay_length": 1.0,
        "Status": "Complete",
        "Notes": "This scheme will ensure a higher quality of treated effluent, reducing phosphorus levels entering the river to below an average level of 2mg/l. This work has been completed as of March 2026.",
        "Public_exp": null,
        "Spill Hours 2024-2025": 927.25,
        "Spill Events 2024-2025": 49,
        "Storm overflow reduction plan?": 2025.0
      }
    },
    {
      "type": "Feature",
      "geometry": {
        "type": "Point",
        "coordinates": [
          -1.416777777777778,
          51.723888888888894
        ]
      },
      "properties": {
        "STW": "Standlake",
        "Catchment": "Windrush",
        "Lat": "51\u00b043'26.0\"N ",
        "Lon": "1\u00b025'00.4\"W",
        "Upgrade_type": null,
        "Original_date": 2030,
        "Revised_date": 2030.0,
        "Original Allocation": null,
        "Revised Allocation": null,
        "Delay_length": 0.0,
        "Status": null,
        "Notes": "TW expect this location to meet all government targets for storm overflows by 2030.",
        "Public_exp": null,
        "Spill Hours 2024-2025": 0.0,
        "Spill Events 2024-2025": 0,
        "Storm overflow reduction plan?": 2030.0
      }
    },
    {
      "type": "Feature",
      "geometry": {
        "type": "Point",
        "coordinates": [
          -1.4955555555555555,
          51.77258333333333
        ]
      },
      "properties": {
        "STW": "Witney",
        "Catchment": "Windrush",
        "Lat": "51\u00b046'21.3\"N ",
        "Lon": "1\u00b029'44.0\"W",
        "Upgrade_type": null,
        "Original_date": 2024,
        "Revised_date": 2026.0,
        "Original Allocation": null,
        "Revised Allocation": null,
        "Delay_length": 2.0,
        "Status": "Delay",
        "Notes": "Witney STW is being upgraded at a cost of more than \u00a316 million. This work will provide a major increase in treatment capacity, from 240 to 399 litres per second. This will reduce the need for untreated discharges in wet weather. This work is expected to complete in autumn 2025. The project is in final stages of takeover, currently testing is taking place with the final commissioning due in late Spring.",
        "Public_exp": null,
        "Spill Hours 2024-2025": 576.0,
        "Spill Events 2024-2025": 37,
        "Storm overflow reduction plan?": 2040.0
      }
    },
    {
      "type": "Feature",
      "geometry": {
        "type": "Point",
        "coordinates": [
          -1.4033333333333333,
          51.74916666666667
        ]
      },
      "properties": {
        "STW": "Stanton Harcourt",
        "Catchment": "Windrush",
        "Lat": "51\u00b044'57.0\"N ",
        "Lon": "1\u00b024'12.0\"W",
        "Upgrade_type": null,
        "Original_date": 2025,
        "Revised_date": 2026.0,
        "Original Allocation": "PR19",
        "Revised Allocation": null,
        "Delay_length": 1.0,
        "Status": "Complete",
        "Notes": "This scheme will ensure a higher quality of treated effluent, reducing phosphorus levels entering the river to below an average level of 0.6mg/l*. This was completed in 2026.",
        "Public_exp": null,
        "Spill Hours 2024-2025": 709.25,
        "Spill Events 2024-2025": 42,
        "Storm overflow reduction plan?": 2045.0
      }
    }
  ]
}